NORAD_CAT_ID,OBJECT_NAME,OBJECT_TYPE,EPOCH,MEAN_MOTION,ECCENTRICITY,INCLINATION,RA_OF_ASC_NODE,ARG_OF_PERICENTER,MEAN_ANOMALY,BSTAR,MEAN_MOTION_DOT,MEAN_MOTION_DDOT,TLE_LINE0,TLE_LINE1,TLE_LINE2,SEMIMAJOR_AXIS,PERIOD,APOGEE,PERIGEE,DECAYED
50199.0,STARLINK-3270,PAYLOAD,2022-03-04 14:00:01,15.67952398,0.0001208,53.2175,349.1507,63.8503,194.0865,-0.0069186,-0.0071597,0.0,0 STARLINK-3270,1 50199U 21125AV  22063.58335648 -.00715970  00000-0 -69186-2 0  9993,2 50199  53.2175 349.1507 0001208  63.8503 194.0865 15.67952398  3702,6742.898,91.84,365.578,363.948,0.0
50199.0,STARLINK-3270,PAYLOAD,2022-03-04 22:00:00,15.67444669,0.0001312,53.2176,347.5125,48.3917,291.7922,-0.0071049999999999,-0.00719776,0.0,0 STARLINK-3270,1 50199U 21125AV  22063.91667824 -.00719776  00000-0 -71050-2 0  9995,2 50199  53.2176 347.5125 0001312  48.3917 291.7922 15.67444669  3698,6744.354,91.869,367.104,365.334,0.0
50199.0,STARLINK-3270,PAYLOAD,2022-03-05 06:00:00,15.6693076,0.0001412,53.2173,345.8763,40.6995,21.1857,-0.0071775,-0.00712649,0.0,0 STARLINK-3270,1 50199U 21125AV  22064.25001157 -.00712649  00000-0 -71775-2 0  9990,2 50199  53.2173 345.8763 0001412  40.6995  21.1857 15.66930760 14905,6745.829000000002,91.899,368.646,366.741,0.0
50199.0,STARLINK-3270,PAYLOAD,2022-03-05 14:00:01,15.66421026,0.0001308,53.2174,344.2379,53.0281,89.9461,-0.0073303,-0.00712837,0.0,0 STARLINK-3270,1 50199U 21125AV  22064.58334491 -.00712837  00000-0 -73303-2 0  9994,2 50199  53.2174 344.2379 0001308  53.0281  89.9461 15.66421026  3677,6747.292,91.929,370.04,368.274,0.0
50199.0,STARLINK-3270,PAYLOAD,2022-03-05 22:00:01,15.65912519,0.000156,53.2177,342.6036,46.4522,177.0617,-0.0075126,-0.00715488,0.0,0 STARLINK-3270,1 50199U 21125AV  22064.91668981 -.00715488  00000-0 -75126-2 0  9995,2 50199  53.2177 342.6036 0001560  46.4522 177.0617 15.65912519  3714,6748.753000000002,91.959,371.67,369.565,0.0
50199.0,STARLINK-3270,PAYLOAD,2022-03-06 06:00:00,15.65401834,0.0001154,53.2173,340.971,63.4874,239.8228,-0.0076451,-0.00713357,0.0,0 STARLINK-3270,1 50199U 21125AV  22065.25001157 -.00713357  00000-0 -76451-2 0  9994,2 50199  53.2173 340.9710 0001154  63.4874 239.8228 15.65401834 15067,6750.22,91.989,372.864,371.306,0.0
50199.0,STARLINK-3270,PAYLOAD,2022-03-06 14:00:01,15.64891364,0.0001098,53.2173,339.3364,57.9741,324.5875,-0.0078061,-0.00713567,0.0,0 STARLINK-3270,1 50199U 21125AV  22065.58334491 -.00713567  00000-0 -78061-2 0  9992,2 50199  53.2173 339.3364 0001098  57.9741 324.5875 15.64891364  3698,6751.688,92.019,374.295,372.812,0.0
50199.0,STARLINK-3270,PAYLOAD,2022-03-06 22:00:00,15.64383038,0.0001446,53.2173,337.706,44.1147,57.0826,-0.0079955,-0.00716027,0.0,0 STARLINK-3270,1 50199U 21125AV  22065.91667824 -.00716027  00000-0 -79955-2 0  9995,2 50199  53.2173 337.7060 0001446  44.1147  57.0826 15.64383038  3696,6753.151,92.049,375.992,374.039,0.0
50199.0,STARLINK-3270,PAYLOAD,2022-03-07 06:00:00,15.63871639,0.000134,53.2172,336.0768,56.3146,122.9065,-0.0081231,-0.0071303,0.0,0 STARLINK-3270,1 50199U 21125AV  22066.25001157 -.00713030  00000-0 -81231-2 0  9995,2 50199  53.2172 336.0768 0001340  56.3146 122.9065 15.63871639 15226,6754.623000000001,92.079,377.393,375.583,0.0
50199.0,STARLINK-3270,PAYLOAD,2022-03-07 12:00:00,15.63489869,0.0001277,53.2175,334.8533,58.813,88.5249,-0.0082633,-0.00714305,0.0,0 STARLINK-3270,1 50199U 21125AV  22066.50001157 -.00714305  00000-0 -82633-2 0  9996,2 50199  53.2175 334.8533 0001277  58.8130  88.5249 15.63489869  3749,6755.722,92.102,378.45,376.725,0.0
50199.0,STARLINK-3270,PAYLOAD,2022-03-07 22:00:00,15.62853992,0.0001377,53.2176,332.8194,46.0247,287.4059,-0.0085082,-0.00717009,0.0,0 STARLINK-3270,1 50199U 21125AV  22066.91667824 -.00717009  00000-0 -85082-2 0  9995,2 50199  53.2176 332.8194 0001377  46.0247 287.4059 15.62853992  3683,6757.555,92.139,380.35,378.489,0.0
50199.0,STARLINK-3270,PAYLOAD,2022-03-08 06:00:02,15.62343145,0.0001467,53.2171,331.1936,37.5623,12.1188,-0.0086495,-0.0071465,0.0,0 STARLINK-3270,1 50199U 21125AV  22067.25002315 -.00714650  00000-0 -86495-2 0  9999,2 50199  53.2171 331.1936 0001467  37.5623  12.1188 15.62343145 15376,6759.028,92.169,381.884,379.901,0.0
50199.0,STARLINK-3270,PAYLOAD,2022-03-08 14:00:01,15.61832176,0.0001455,53.2171,329.5665,44.6076,80.5831,-0.008813,-0.00713808,0.0,0 STARLINK-3270,1 50199U 21125AV  22067.58334491 -.00713808  00000-0 -88130-2 0  9990,2 50199  53.2171 329.5665 0001455  44.6076  80.5831 15.61832176  3708,6760.502,92.199,383.35,381.383,0.0
50199.0,STARLINK-3270,PAYLOAD,2022-03-08 22:00:00,15.61321012,0.0001581,53.2173,327.9438,45.9724,154.1781,-0.0089617,-0.00711739,0.0,0 STARLINK-3270,1 50199U 21125AV  22067.91667824 -.00711739  00000-0 -89617-2 0  9998,2 50199  53.2173 327.9438 0001581  45.9724 154.1781 15.61321012  3696,6761.977,92.23,384.911,382.773,0.0
50199.0,STARLINK-3270,PAYLOAD,2022-03-09 06:00:00,15.608143300000002,0.0001479,53.2171,326.3216,45.4501,229.0459,-0.009205,-0.00716381,0.0,0 STARLINK-3270,1 50199U 21125AV  22068.25001157 -.00716381  00000-0 -92050-2 0  9990,2 50199  53.2171 326.3216 0001479  45.4501 229.0459 15.60814330 15534,6763.441,92.26,386.306,384.305,0.0
50199.0,STARLINK-3270,PAYLOAD,2022-03-09 14:00:01,15.6030151,0.0001221,53.2172,324.6982,52.843,295.3901,-0.0093357,-0.00712574,0.0,0 STARLINK-3270,1 50199U 21125AV  22068.58334491 -.00712574  00000-0 -93357-2 0  9997,2 50199  53.2172 324.6982 0001221  52.8430 295.3901 15.60301510  3710,6764.922,92.29,387.61300000000006,385.961,0.0
50199.0,STARLINK-3270,PAYLOAD,2022-03-09 22:00:01,15.59793943,0.0001434,53.2174,323.0796,43.6474,17.7706,-0.0095732999999999,-0.00716277,0.0,0 STARLINK-3270,1 50199U 21125AV  22068.91668981 -.00716277  00000-0 -95733-2 0  9992,2 50199  53.2174 323.0796 0001434  43.6474  17.7706 15.59793943  3699,6766.39,92.32,389.225,387.285,0.0
50199.0,STARLINK-3270,PAYLOAD,2022-03-10 06:00:00,15.59165635,0.0001583,53.2164,321.4641,48.9149,85.0104,-0.0075652,-0.00563268,0.0,0 STARLINK-3270,1 50199U 21125AV  22069.25001157 -.00563268  00000-0 -75652-2 0  9994,2 50199  53.2164 321.4641 0001583  48.9149  85.0104 15.59165635 15695,6768.208000000001,92.357,391.144,389.001,0.0
50199.0,STARLINK-3270,PAYLOAD,2022-03-10 14:00:01,15.58664915,0.0001603,53.2168,319.8446,39.6428,166.17,-0.0077914,-0.00568759,0.0,0 STARLINK-3270,1 50199U 21125AV  22069.58334491 -.00568759  00000-0 -77914-2 0  9993,2 50199  53.2168 319.8446 0001603  39.6428 166.1700 15.58664915  3664,6769.656999999997,92.387,392.607,390.437,0.0
50199.0,STARLINK-3270,PAYLOAD,2022-03-10 20:00:01,15.583898499999998,0.000168,53.2176,318.6296,41.4456,127.8335,-0.01005,-0.00713005,0.0,0 STARLINK-3270,1 50199U 21125AV  22069.83334491 -.00713005  00000-0 -10050-1 0  9994,2 50199  53.2176 318.6296 0001680  41.4456 127.8335 15.58389850 15786,6770.454000000002,92.403,393.456,391.181,0.0
50199.0,STARLINK-3270,PAYLOAD,2022-03-10 22:00:01,15.5826198,0.0001568,53.2175,318.2262,43.8991,233.2081,-0.010091,-0.0071247,0.0,0 STARLINK-3270,1 50199U 21125AV  22069.91668981 -.00712470  00000-0 -10091-1 0  9997,2 50199  53.2175 318.2262 0001568  43.8991 233.2081 15.58261980  3699,6770.824000000001,92.411,393.751,391.627,0.0
50199.0,STARLINK-3270,PAYLOAD,2022-03-11 14:00:01,15.57242235,0.0001330999999999,53.2173,314.9952,45.3429,12.4289,-0.010503,-0.00713382,0.0,0 STARLINK-3270,1 50199U 21125AV  22070.58334491 -.00713382  00000-0 -10503-1 0  9999,2 50199  53.2173 314.9952 0001331  45.3429  12.4289 15.57242235  3673,6773.78,92.471,396.546,394.74300000000005,0.0
50199.0,STARLINK-3270,PAYLOAD,2022-03-11 22:00:00,15.56732885,0.0001676999999999,53.2171,313.3841,39.6461,87.5692,-0.010711,-0.00713753,0.0,0 STARLINK-3270,1 50199U 21125AV  22070.91667824 -.00713753  00000-0 -10711-1 0  9998,2 50199  53.2171 313.3841 0001677  39.6461  87.5692 15.56732885 15944,6775.257,92.501,398.258,395.986,0.0
50199.0,STARLINK-3270,PAYLOAD,2022-03-12 14:00:01,15.55712459,0.00014,53.2172,310.1601,53.6953,210.573,-0.011111,-0.00712748,0.0,0 STARLINK-3270,1 50199U 21125AV  22071.58334491 -.00712748  00000-0 -11111-1 0  9991,2 50199  53.2172 310.1601 0001400  53.6953 210.5730 15.55712459  3706,6778.219,92.562,401.033,399.135,0.0
50199.0,STARLINK-3270,PAYLOAD,2022-03-12 22:00:00,15.55203572,0.0001465,53.2173,308.5529,45.5639,286.3095,-0.011352,-0.00714434,0.0,0 STARLINK-3270,1 50199U 21125AV  22071.91667824 -.00714434  00000-0 -11352-1 0  9998,2 50199  53.2173 308.5529 0001465  45.5639 286.3095 15.55203572 16103,6779.698,92.592,402.556,400.57,0.0
50199.0,STARLINK-3270,PAYLOAD,2022-03-13 14:00:01,15.54183255,0.0001452,53.2174,305.3365,46.1011,59.1485,-0.011776,-0.00713777,0.0,0 STARLINK-3270,1 50199U 21125AV  22072.58334491 -.00713777  00000-0 -11776-1 0  9992,2 50199  53.2174 305.3365 0001452  46.1011  59.1485 15.54183255  3710,6782.665,92.653,405.515,403.545,0.0
50199.0,STARLINK-3270,PAYLOAD,2022-03-13 22:00:01,15.53672695,0.0001817,53.2174,303.7327,38.344,132.7377,-0.011975,-0.0071255,0.0,0 STARLINK-3270,1 50199U 21125AV  22072.91668981 -.00712550  00000-0 -11975-1 0  9992,2 50199  53.2174 303.7327 0001817  38.3440 132.7377 15.53672695 16266,6784.151,92.684,407.24800000000016,404.783,0.0
50199.0,STARLINK-3270,PAYLOAD,2022-03-14 14:00:01,15.526521100000002,0.000137,53.2175,300.5236,53.4008,247.3803,-0.012404,-0.00711135,0.0,0 STARLINK-3270,1 50199U 21125AV  22073.58335648 -.00711135  00000-0 -12404-1 0  9993,2 50199  53.2175 300.5236 0001370  53.4008 247.3803 15.52652110  3681,6787.123000000001,92.745,409.918,408.0580000000001,0.0
50199.0,STARLINK-3270,PAYLOAD,2022-03-14 20:00:01,15.52269031,0.0001511,53.2175,299.3237,50.7154,208.0052,-0.012554,-0.00709933,0.0,0 STARLINK-3270,1 50199U 21125AV  22073.83334491 -.00709933  00000-0 -12554-1 0  9995,2 50199  53.2175 299.3237 0001511  50.7154 208.0052 15.52269031 16406,6788.24,92.767,411.131,409.079,0.0
